LEMUR-2-ALISIA          
1 62706U 25009DB  26160.47804434  .00007074  00000+0  53487-3 0  9993
2 62706  97.6967 242.7005 0001106 189.5011 170.6194 15.02660150 99002
LEMUR-2-ROUNDTRIPPER    
1 62711U 25009DG  26160.50786742  .00008366  00000+0  61499-3 0  9991
2 62711  97.7245 243.1982 0004503 156.1336 204.0099 15.03662237 76472
LEMUR-2-MYNAMEISJEFF    
1 62712U 25009DH  26160.50633042  .00008036  00000+0  59077-3 0  9999
2 62712  97.7293 243.5731 0002763 182.4773 177.6439 15.03676281 76472
LEMUR-2-LEIA-PHILIP     
1 63246U 25052AN  26160.18399156  .00002014  00000+0  17873-3 0  9997
2 63246  97.6847  52.2692 0002040 243.2952 116.8061 14.97294512 67474
LEMUR-2-LIA-MARTIN      
1 63248U 25052AQ  26160.52557387  .00004843  00000+0  41773-3 0  9997
2 63248  97.6913  53.0684 0002427 168.6709 191.4568 14.97742456 67532
LEMUR-2-DELOITTE-1      
1 63259U 25052BB  26160.43411101  .00003344  00000+0  29149-3 0  9990
2 63259  97.6922  53.3073 0002602 113.2780 246.8717 14.97543158 67538
LEMUR-2-EMERSONROSE     
1 63261U 25052BD  26160.41693578  .00002865  00000+0  24110-3 0  9991
2 63261  97.6905  53.8347 0002359  69.8836 290.2640 14.99027434 67576
LEMUR-2-MARACHE-FRAN    
1 63262U 25052BE  26160.46419860  .00005470  00000+0  44416-3 0  9993
2 63262  97.6949  54.1806 0006140  48.5329 311.6421 15.00020714 67608
LEMUR-2-THEFALCONER     
1 63264U 25052BG  26160.52624883  .00003810  00000+0  33313-3 0  9995
2 63264  97.6881  53.0266 0003515  57.0491 303.1068 14.97341008 67544
LEMUR-2-UNTITLED-SC     
1 63351U 25061A   26160.48534861  .00003563  00000+0  20258-3 0  9992
2 63351  97.5629 135.9034 0017104 294.0280  65.9160 15.13418052 66426
LEMUR-2-ESPERANZA       
1 63352U 25061B   26160.39684525  .00003154  00000+0  17932-3 0  9997
2 63352  97.5639 135.9075 0016640 293.8451  66.1035 15.13512339 66410
LEMUR-2-KREMPEL-BRO2    
1 63353U 25061C   26160.42606201  .00003449  00000+0  19331-3 0  9999
2 63353  97.5684 136.4597 0017521 285.1860  74.7434 15.13945808 66434
LEMUR-2-THERMORAPTOR    
1 63354U 25061D   26160.47462517  .00003817  00000+0  21309-3 0  9992
2 63354  97.5691 136.5823 0017235 284.0077  75.9238 15.14025782 66443
LEMUR-2-NEUROSPICY      
1 63355U 25061E   26160.44688172  .00002999  00000+0  16783-3 0  9997
2 63355  97.5616 136.1870 0015024 288.3745  71.5852 15.14139696 66446
LEMUR-2-TILLINFINITY    
1 63356U 25061F   26160.48513497  .00003838  00000+0  21018-3 0  9999
2 63356  97.5602 136.5100 0016251 274.8049  85.1327 15.14726726 66479
LEMUR-2-KREMPEL-BRO1    
1 63357U 25061G   26160.45761654  .00003095  00000+0  17109-3 0  9998
2 63357  97.5604 136.4010 0016835 276.2036  83.7278 15.14532083 66460
LEMUR-2-LANGER2SPACE    
1 63358U 25061H   26159.88784097  .00004013  00000+0  22277-3 0  9993
2 63358  97.5608 135.6518 0014978 288.5876  71.3728 15.14224922 66365
LEMUR-2-BALTO           
1 63395U 25052BH  26160.44878801  .00005243  00000+0  42606-3 0  9999
2 63395  97.6885  54.1491 0006724  77.3763 282.8211 15.00001794 67607
LEMUR-2-KRISH           
1 64561U 25135AK  26160.31641352  .00004219  00000+0  38003-3 0  9990
2 64561  97.7723 275.2484 0001293 108.4074 251.7288 14.96130634 52748
LEMUR-2-HUBBLE-4        
1 64565U 25135AP  26160.29593977  .00001102  00000+0  11101-3 0  9998
2 64565  97.7690 274.2983 0001531 352.8665   7.2532 14.93174752 52690
LEMUR-2-SEJONG-2        
1 64586U 25135BL  26160.54958604  .00003825  00000+0  34056-3 0  9999
2 64586  97.7685 275.6239 0004455  14.0527 346.0817 14.96641128 52800
LEMUR-2-HUBBLE-5        
1 64840U 25135BT  26160.32193726  .00001718  00000+0  16602-3 0  9990
2 64840  97.7710 274.9448 0005695  20.1763 339.9681 14.94111087 52739
LEMUR-2-KARENDARRELL    
1 64841U 25135BU  26160.31360257  .00006548  00000+0  53081-3 0  9993
2 64841  97.7668 276.5364 0009150 232.7266 127.3124 14.99995958 52830
LEMUR-2-LUCILLE-ROSE    
1 65403U 25135BV  26160.28759470  .00006001  00000+0  48609-3 0  9997
2 65403  97.7767 276.5201 0010699 313.8437  46.1901 15.00053411 47451
LEMUR-2-AFFIE-WAUWIE    
1 66295U 25248C   26160.27076274  .00011685  00000+0  44418-3 0  9993
2 66295  45.3882 157.8710 0008477  30.7029 329.4355 15.26913101 33383
LEMUR-2-DEANANDMAEVE    
1 66678U 25276N   26160.47912679  .00006464  00000+0  30625-3 0  9993
2 66678  97.4211 234.0832 0006418  39.5718 320.5984 15.19637450 29242
LEMUR-2-STAS-GORBUK     
1 66686U 25276W   26160.09670755  .00004908  00000+0  23570-3 0  9998
2 66686  97.4245 233.7628 0005917  41.0209 319.1470 15.19293405 29188
LEMUR-2-TEODOR          
1 66768U 25276DG  26159.76039806  .00006349  00000+0  28971-3 0  9998
2 66768  97.4147 233.6579 0001844 123.1960 236.9453 15.20959604 29162
LEMUR-2-LAILA           
1 66776U 25276DQ  26160.45911894  .00005030  00000+0  22872-3 0  9991
2 66776  97.4174 234.4615 0001714 145.3115 214.8233 15.21186394 29277
LEMUR-2-CELIJO-SB-PK    
1 66781U 25276DW  26160.43145432  .00005232  00000+0  42627-3 0  9996
2 66781  97.5278 231.4628 0008872 151.1173 209.0543 14.99878908 21467
