OBJECT_NAME,OBJECT_ID,EPOCH,MEAN_MOTION,ECCENTRICITY,INCLINATION,RA_OF_ASC_NODE,ARG_OF_PERICENTER,MEAN_ANOMALY,EPHEMERIS_TYPE,CLASSIFICATION_TYPE,NORAD_CAT_ID,ELEMENT_SET_NO,REV_AT_EPOCH,BSTAR,MEAN_MOTION_DOT,MEAN_MOTION_DDOT
LEMUR-2-ALISIA,2025-009DB,2026-06-09T11:28:23.030976,15.02660150,.0001106,97.6967,242.7005,189.5011,170.6194,0,U,62706,999,9900,.53487E-3,.7074E-4,0
LEMUR-2-ROUNDTRIPPER,2025-009DG,2026-06-09T12:11:19.745088,15.03662237,.0004503,97.7245,243.1982,156.1336,204.0099,0,U,62711,999,7647,.61499E-3,.8366E-4,0
LEMUR-2-MYNAMEISJEFF,2025-009DH,2026-06-09T12:09:06.948288,15.03676281,.0002763,97.7293,243.5731,182.4773,177.6439,0,U,62712,999,7647,.59077E-3,.8036E-4,0
LEMUR-2-LEIA-PHILIP,2025-052AN,2026-06-09T04:24:56.870784,14.97294512,.000204,97.6847,52.2692,243.2952,116.8061,0,U,63246,999,6747,.17873E-3,.2014E-4,0
LEMUR-2-LIA-MARTIN,2025-052AQ,2026-06-09T12:36:49.582368,14.97742456,.0002427,97.6913,53.0684,168.6709,191.4568,0,U,63248,999,6753,.41773E-3,.4843E-4,0
LEMUR-2-DELOITTE-1,2025-052BB,2026-06-09T10:25:07.191264,14.97543158,.0002602,97.6922,53.3073,113.2780,246.8717,0,U,63259,999,6753,.29149E-3,.3344E-4,0
LEMUR-2-EMERSONROSE,2025-052BD,2026-06-09T10:00:23.251392,14.99027434,.0002359,97.6905,53.8347,69.8836,290.2640,0,U,63261,999,6757,.2411E-3,.2865E-4,0
LEMUR-2-MARACHE-FRAN,2025-052BE,2026-06-09T11:08:26.759040,15.00020714,.000614,97.6949,54.1806,48.5329,311.6421,0,U,63262,999,6760,.44416E-3,.547E-4,0
LEMUR-2-THEFALCONER,2025-052BG,2026-06-09T12:37:47.898912,14.97341008,.0003515,97.6881,53.0266,57.0491,303.1068,0,U,63264,999,6754,.33313E-3,.381E-4,0
LEMUR-2-UNTITLED-SC,2025-061A,2026-06-09T11:38:54.119904,15.13418052,.0017104,97.5629,135.9034,294.0280,65.9160,0,U,63351,999,6642,.20258E-3,.3563E-4,0
LEMUR-2-ESPERANZA,2025-061B,2026-06-09T09:31:27.429600,15.13512339,.001664,97.5639,135.9075,293.8451,66.1035,0,U,63352,999,6641,.17932E-3,.3154E-4,0
LEMUR-2-KREMPEL-BRO2,2025-061C,2026-06-09T10:13:31.757664,15.13945808,.0017521,97.5684,136.4597,285.1860,74.7434,0,U,63353,999,6643,.19331E-3,.3449E-4,0
LEMUR-2-THERMORAPTOR,2025-061D,2026-06-09T11:23:27.614688,15.14025782,.0017235,97.5691,136.5823,284.0077,75.9238,0,U,63354,999,6644,.21309E-3,.3817E-4,0
LEMUR-2-NEUROSPICY,2025-061E,2026-06-09T10:43:30.580608,15.14139696,.0015024,97.5616,136.1870,288.3745,71.5852,0,U,63355,999,6644,.16783E-3,.2999E-4,0
LEMUR-2-TILLINFINITY,2025-061F,2026-06-09T11:38:35.661408,15.14726726,.0016251,97.5602,136.5100,274.8049,85.1327,0,U,63356,999,6647,.21018E-3,.3838E-4,0
LEMUR-2-KREMPEL-BRO1,2025-061G,2026-06-09T10:58:58.069056,15.14532083,.0016835,97.5604,136.4010,276.2036,83.7278,0,U,63357,999,6646,.17109E-3,.3095E-4,0
LEMUR-2-LANGER2SPACE,2025-061H,2026-06-08T21:18:29.459808,15.14224922,.00149781,97.5608,135.6518,288.5876,71.3728,0,U,63358,999,6636,.22276776E-3,.4013E-4,0
LEMUR-2-BALTO,2025-052BH,2026-06-09T10:46:15.284064,15.00001794,.0006724,97.6885,54.1491,77.3763,282.8211,0,U,63395,999,6760,.42606E-3,.5243E-4,0
LEMUR-2-KRISH,2025-135AK,2026-06-09T07:35:38.128128,14.96130634,.0001293,97.7723,275.2484,108.4074,251.7288,0,U,64561,999,5274,.38003E-3,.4219E-4,0
LEMUR-2-HUBBLE-4,2025-135AP,2026-06-09T07:06:09.196128,14.93174752,.0001531,97.7690,274.2983,352.8665,7.2532,0,U,64565,999,5269,.11101E-3,.1102E-4,0
LEMUR-2-SEJONG-2,2025-135BL,2026-06-09T13:11:24.233856,14.96641128,.0004455,97.7685,275.6239,14.0527,346.0817,0,U,64586,999,5280,.34056E-3,.3825E-4,0
LEMUR-2-HUBBLE-5,2025-135BT,2026-06-09T07:43:35.379264,14.94111087,.0005695,97.7710,274.9448,20.1763,339.9681,0,U,64840,999,5273,.16602E-3,.1718E-4,0
LEMUR-2-KARENDARRELL,2025-135BU,2026-06-09T07:31:35.262048,14.99995958,.000915,97.7668,276.5364,232.7266,127.3124,0,U,64841,999,5283,.53081E-3,.6548E-4,0
LEMUR-2-LUCILLE-ROSE,2025-135BV,2026-06-09T06:54:08.182080,15.00053411,.0010699,97.7767,276.5201,313.8437,46.1901,0,U,65403,999,4745,.48609E-3,.6001E-4,0
LEMUR-2-AFFIE-WAUWIE,2025-248C,2026-06-09T06:29:53.900736,15.26913101,.0008477,45.3882,157.8710,30.7029,329.4355,0,U,66295,999,3338,.44418E-3,.11685E-3,0
LEMUR-2-DEANANDMAEVE,2025-276N,2026-06-09T11:29:56.554656,15.19637450,.0006418,97.4211,234.0832,39.5718,320.5984,0,U,66678,999,2924,.30625E-3,.6464E-4,0
LEMUR-2-STAS-GORBUK,2025-276W,2026-06-09T02:19:15.532320,15.19293405,.00059173,97.4245,233.7628,41.0209,319.1470,0,U,66686,999,2918,.23570032E-3,.4908E-4,0
LEMUR-2-TEODOR,2025-276DG,2026-06-08T18:14:58.392384,15.20959604,.00018446,97.4147,233.6579,123.1960,236.9453,0,U,66768,999,2916,.28970999E-3,.6349E-4,0
LEMUR-2-LAILA,2025-276DQ,2026-06-09T11:01:07.876416,15.21186394,.0001714,97.4174,234.4615,145.3115,214.8233,0,U,66776,999,2927,.22872E-3,.503E-4,0
LEMUR-2-CELIJO-SB-PK,2025-276DW,2026-06-09T10:21:17.653248,14.99878908,.0008872,97.5278,231.4628,151.1173,209.0543,0,U,66781,999,2146,.42627E-3,.5232E-4,0
